start=new Date('2022-01-08T00:00:00.000Z').valueOf();
sats=[{"PERIOD":"95.593","LAUNCH_DATE":"2021-03-14","CENTER_NAME":"EARTH","CLASSIFICATION_TYPE":"U","APOAPSIS":"548.581","EPOCH":"2022-01-07T20:32:14.536320","OBJECT_NAME":"STARLINK-2369","COUNTRY_CODE":"US","ECCENTRICITY":"0.00019360","REF_FRAME":"TEME","ELEMENT_SET_NO":"999","RCS_SIZE":"MEDIUM","RA_OF_ASC_NODE":"263.4034","MEAN_ANOMALY":"303.9459","REV_AT_EPOCH":"4697","NORAD_CAT_ID":"47909","SEMIMAJOR_AXIS":"6925.375","BSTAR":"0.00001782300000","MEAN_MOTION_DDOT":"0.0000000000000","TIME_SYSTEM":"UTC","TLE_LINE1":"1 47909U 21021BB  22007.85572380 -.00000016  00000-0  17823-4 0  9997","GP_ID":"193425290","FILE":"3266804","INCLINATION":"53.0545","EPHEMERIS_TYPE":"0","OBJECT_ID":"2021-021BB","SITE":"AFETR","MEAN_ELEMENT_THEORY":"SGP4","MEAN_MOTION":"15.06391307","DECAY_DATE":null,"OBJECT_TYPE":"PAYLOAD","ARG_OF_PERICENTER":"56.1714","PERIAPSIS":"545.899","TLE_LINE2":"2 47909  53.0545 263.4034 0001936  56.1714 303.9459 15.06391307 46972","MEAN_MOTION_DOT":"-0.00000016"},{"ARG_OF_PERICENTER":"59.7427","DECAY_DATE":null,"OBJECT_TYPE":"PAYLOAD","TLE_LINE2":"2 47910  53.0548 263.2269 0002234  59.7427 300.3783 15.06389413 46838","PERIAPSIS":"545.699","MEAN_MOTION_DOT":"-0.00000224","INCLINATION":"53.0548","TLE_LINE1":"1 47910U 21021BC  22007.89164702 -.00000224  00000-0  39051-5 0  9997","GP_ID":"193425539","FILE":"3266804","MEAN_ELEMENT_THEORY":"SGP4","MEAN_MOTION":"15.06389413","EPHEMERIS_TYPE":"0","OBJECT_ID":"2021-021BC","SITE":"AFETR","RCS_SIZE":"LARGE","RA_OF_ASC_NODE":"263.2269","MEAN_ANOMALY":"300.3783","REV_AT_EPOCH":"4683","ELEMENT_SET_NO":"999","NORAD_CAT_ID":"47910","SEMIMAJOR_AXIS":"6925.381","BSTAR":"0.00000390510000","MEAN_MOTION_DDOT":"0.0000000000000","TIME_SYSTEM":"UTC","APOAPSIS":"548.793","CLASSIFICATION_TYPE":"U","EPOCH":"2022-01-07T21:23:58.302528","PERIOD":"95.593","LAUNCH_DATE":"2021-03-14","CENTER_NAME":"EARTH","ECCENTRICITY":"0.00022340","COUNTRY_CODE":"US","REF_FRAME":"TEME","OBJECT_NAME":"STARLINK-2370"},{"SEMIMAJOR_AXIS":"6925.376","BSTAR":"-0.00004500100000","NORAD_CAT_ID":"47911","MEAN_MOTION_DDOT":"0.0000000000000","TIME_SYSTEM":"UTC","RCS_SIZE":"LARGE","REV_AT_EPOCH":"4645","RA_OF_ASC_NODE":"278.2752","MEAN_ANOMALY":"302.7443","ELEMENT_SET_NO":"999","COUNTRY_CODE":"US","REF_FRAME":"TEME","ECCENTRICITY":"0.00021360","OBJECT_NAME":"STARLINK-2371","CLASSIFICATION_TYPE":"U","APOAPSIS":"548.720","EPOCH":"2022-01-07T21:14:00.170016","PERIOD":"95.593","LAUNCH_DATE":"2021-03-14","CENTER_NAME":"EARTH","MEAN_MOTION_DOT":"-0.00000952","PERIAPSIS":"545.762","TLE_LINE2":"2 47911  53.0544 278.2752 0002136  57.3752 302.7443 15.06391085 46459","ARG_OF_PERICENTER":"57.3752","OBJECT_TYPE":"PAYLOAD","DECAY_DATE":null,"MEAN_ELEMENT_THEORY":"SGP4","MEAN_MOTION":"15.06391085","EPHEMERIS_TYPE":"0","SITE":"AFETR","OBJECT_ID":"2021-021BD","INCLINATION":"53.0544","TLE_LINE1":"1 47911U 21021BD  22007.88472419 -.00000952  00000-0 -45001-4 0  9994","FILE":"3266804","GP_ID":"193426278"},{"REF_FRAME":"TEME","COUNTRY_CODE":"US","ECCENTRICITY":"0.00020450","OBJECT_NAME":"STARLINK-2372","APOAPSIS":"548.655","CLASSIFICATION_TYPE":"U","EPOCH":"2022-01-07T21:14:42.363456","PERIOD":"95.593","LAUNCH_DATE":"2021-03-14","CENTER_NAME":"EARTH","NORAD_CAT_ID":"47912","SEMIMAJOR_AXIS":"6925.374","BSTAR":"0.00009286900000","TIME_SYSTEM":"UTC","MEAN_MOTION_DDOT":"0.0000000000000","RCS_SIZE":"LARGE","MEAN_ANOMALY":"301.0534","RA_OF_ASC_NODE":"263.2547","REV_AT_EPOCH":"4666","ELEMENT_SET_NO":"999","MEAN_ELEMENT_THEORY":"SGP4","MEAN_MOTION":"15.06391669","EPHEMERIS_TYPE":"0","OBJECT_ID":"2021-021BE","SITE":"AFETR","INCLINATION":"53.0535","TLE_LINE1":"1 47912U 21021BE  22007.88521254  .00001102  00000-0  92869-4 0  9997","GP_ID":"193424541","FILE":"3266804","TLE_LINE2":"2 47912  53.0535 263.2547 0002045  59.0656 301.0534 15.06391669 46661","PERIAPSIS":"545.823","MEAN_MOTION_DOT":"0.00001102","ARG_OF_PERICENTER":"59.0656","DECAY_DATE":null,"OBJECT_TYPE":"PAYLOAD"},{"ARG_OF_PERICENTER":"61.6559","OBJECT_TYPE":"PAYLOAD","DECAY_DATE":null,"MEAN_MOTION_DOT":"0.00001200","TLE_LINE2":"2 47913  53.0550 273.1506 0001968  61.6559 298.4628 15.06392167 46698","PERIAPSIS":"545.875","INCLINATION":"53.0550","FILE":"3266804","GP_ID":"193424791","TLE_LINE1":"1 47913U 21021BF  22007.91283319  .00001200  00000-0  99442-4 0  9992","MEAN_MOTION":"15.06392167","MEAN_ELEMENT_THEORY":"SGP4","SITE":"AFETR","OBJECT_ID":"2021-021BF","EPHEMERIS_TYPE":"0","REV_AT_EPOCH":"4669","MEAN_ANOMALY":"298.4628","RA_OF_ASC_NODE":"273.1506","RCS_SIZE":"LARGE","ELEMENT_SET_NO":"999","MEAN_MOTION_DDOT":"0.0000000000000","TIME_SYSTEM":"UTC","SEMIMAJOR_AXIS":"6925.373","BSTAR":"0.00009944200000","NORAD_CAT_ID":"47913","EPOCH":"2022-01-07T21:54:28.787616","APOAPSIS":"548.600","CLASSIFICATION_TYPE":"U","CENTER_NAME":"EARTH","LAUNCH_DATE":"2021-03-14","PERIOD":"95.593","COUNTRY_CODE":"US","ECCENTRICITY":"0.00019680","REF_FRAME":"TEME","OBJECT_NAME":"STARLINK-2374"},{"MEAN_ELEMENT_THEORY":"SGP4","MEAN_MOTION":"15.06393069","EPHEMERIS_TYPE":"0","SITE":"AFETR","OBJECT_ID":"2021-021BG","INCLINATION":"53.0547","TLE_LINE1":"1 47914U 21021BG  22007.91008943  .00001081  00000-0  91473-4 0  9994","FILE":"3266804","GP_ID":"193426039","MEAN_MOTION_DOT":"0.00001081","TLE_LINE2":"2 47914  53.0547 273.1593 0001859  63.5662 296.5517 15.06393069 46683","PERIAPSIS":"545.947","ARG_OF_PERICENTER":"63.5662","OBJECT_TYPE":"PAYLOAD","DECAY_DATE":null,"COUNTRY_CODE":"US","REF_FRAME":"TEME","ECCENTRICITY":"0.00018590","OBJECT_NAME":"STARLINK-2375","CLASSIFICATION_TYPE":"U","APOAPSIS":"548.522","EPOCH":"2022-01-07T21:50:31.726752","LAUNCH_DATE":"2021-03-14","PERIOD":"95.593","CENTER_NAME":"EARTH","SEMIMAJOR_AXIS":"6925.370","BSTAR":"0.00009147300000","NORAD_CAT_ID":"47914","TIME_SYSTEM":"UTC","MEAN_MOTION_DDOT":"0.0000000000000","RCS_SIZE":"LARGE","REV_AT_EPOCH":"4668","RA_OF_ASC_NODE":"273.1593","MEAN_ANOMALY":"296.5517","ELEMENT_SET_NO":"999"},{"MEAN_ELEMENT_THEORY":"SGP4","MEAN_MOTION":"15.06873308","EPHEMERIS_TYPE":"0","SITE":"AFETR","OBJECT_ID":"2021-021BH","INCLINATION":"53.0592","TLE_LINE1":"1 47915U 21021BH  22007.11211611  .00064505  00000-0  42548-2 0  9992","FILE":"3266507","GP_ID":"193393045","MEAN_MOTION_DOT":"0.00064505","TLE_LINE2":"2 47915  53.0592 271.7202 0004084 261.8534  98.1992 15.06873308 46647","PERIAPSIS":"542.936","ARG_OF_PERICENTER":"261.8534","OBJECT_TYPE":"PAYLOAD","DECAY_DATE":null,"COUNTRY_CODE":"US","ECCENTRICITY":"0.00040840","REF_FRAME":"TEME","OBJECT_NAME":"STARLINK-2376","APOAPSIS":"548.591","CLASSIFICATION_TYPE":"U","EPOCH":"2022-01-07T02:41:26.831904","PERIOD":"95.562","LAUNCH_DATE":"2021-03-14","CENTER_NAME":"EARTH","SEMIMAJOR_AXIS":"6923.898","BSTAR":"0.00425480000000","NORAD_CAT_ID":"47915","TIME_SYSTEM":"UTC","MEAN_MOTION_DDOT":"0.0000000000000","RCS_SIZE":"LARGE","REV_AT_EPOCH":"4664","MEAN_ANOMALY":"98.1992","RA_OF_ASC_NODE":"271.7202","ELEMENT_SET_NO":"999"},{"EPHEMERIS_TYPE":"0","SITE":"AFETR","OBJECT_ID":"2021-021BJ","MEAN_ELEMENT_THEORY":"SGP4","MEAN_MOTION":"15.06389832","TLE_LINE1":"1 47916U 21021BJ  22007.88245116  .00000844  00000-0  75614-4 0  9992","FILE":"3266804","GP_ID":"193425041","INCLINATION":"53.0550","MEAN_MOTION_DOT":"0.00000844","TLE_LINE2":"2 47916  53.0550 253.2696 0001894  57.6972 302.4200 15.06389832 46947","PERIAPSIS":"545.933","OBJECT_TYPE":"PAYLOAD","DECAY_DATE":null,"ARG_OF_PERICENTER":"57.6972","OBJECT_NAME":"STARLINK-2378","COUNTRY_CODE":"US","ECCENTRICITY":"0.00018940","REF_FRAME":"TEME","PERIOD":"95.593","LAUNCH_DATE":"2021-03-14","CENTER_NAME":"EARTH","CLASSIFICATION_TYPE":"U","APOAPSIS":"548.556","EPOCH":"2022-01-07T21:10:43.780224","SEMIMAJOR_AXIS":"6925.380","BSTAR":"0.00007561400000","NORAD_CAT_ID":"47916","MEAN_MOTION_DDOT":"0.0000000000000","TIME_SYSTEM":"UTC","ELEMENT_SET_NO":"999","RCS_SIZE":"LARGE","REV_AT_EPOCH":"4694","MEAN_ANOMALY":"302.4200","RA_OF_ASC_NODE":"253.2696"},{"TIME_SYSTEM":"UTC","MEAN_MOTION_DDOT":"0.0000000000000","SEMIMAJOR_AXIS":"6925.377","BSTAR":"0.00001576600000","NORAD_CAT_ID":"47917","ELEMENT_SET_NO":"999","REV_AT_EPOCH":"4679","MEAN_ANOMALY":"307.8868","RA_OF_ASC_NODE":"263.2606","RCS_SIZE":"LARGE","OBJECT_NAME":"STARLINK-2397","COUNTRY_CODE":"US","ECCENTRICITY":"0.00024670","REF_FRAME":"TEME","CENTER_NAME":"EARTH","LAUNCH_DATE":"2021-03-14","PERIOD":"95.593","EPOCH":"2022-01-07T21:20:01.233024","CLASSIFICATION_TYPE":"U","APOAPSIS":"548.950","MEAN_MOTION_DOT":"-0.00000047","PERIAPSIS":"545.533","TLE_LINE2":"2 47917  53.0551 263.2606 0002467  52.2344 307.8868 15.06390828 46791","OBJECT_TYPE":"PAYLOAD","DECAY_DATE":null,"ARG_OF_PERICENTER":"52.2344","SITE":"AFETR","OBJECT_ID":"2021-021BK","EPHEMERIS_TYPE":"0","MEAN_MOTION":"15.06390828","MEAN_ELEMENT_THEORY":"SGP4","FILE":"3266804","GP_ID":"193425291","TLE_LINE1":"1 47917U 21021BK  22007.88890316 -.00000047  00000-0  15766-4 0  9999","INCLINATION":"53.0551"},{"MEAN_MOTION_DOT":"0.00000844","PERIAPSIS":"545.749","TLE_LINE2":"2 47918  53.0560 263.2189 0002147  57.6129 302.5068 15.06392776 46825","OBJECT_TYPE":"PAYLOAD","DECAY_DATE":null,"ARG_OF_PERICENTER":"57.6129","EPHEMERIS_TYPE":"0","SITE":"AFETR","OBJECT_ID":"2021-021BL","MEAN_ELEMENT_THEORY":"SGP4","MEAN_MOTION":"15.06392776","TLE_LINE1":"1 47918U 21021BL  22007.89626747  .00000844  00000-0  75560-4 0  9998","FILE":"3266804","GP_ID":"193425540","INCLINATION":"53.0560","SEMIMAJOR_AXIS":"6925.371","BSTAR":"0.00007556000000","NORAD_CAT_ID":"47918","MEAN_MOTION_DDOT":"0.0000000000000","TIME_SYSTEM":"UTC","ELEMENT_SET_NO":"999","RCS_SIZE":"LARGE","REV_AT_EPOCH":"4682","RA_OF_ASC_NODE":"263.2189","MEAN_ANOMALY":"302.5068","OBJECT_NAME":"STARLINK-2398","ECCENTRICITY":"0.00021470","COUNTRY_CODE":"US","REF_FRAME":"TEME","PERIOD":"95.593","LAUNCH_DATE":"2021-03-14","CENTER_NAME":"EARTH","APOAPSIS":"548.723","CLASSIFICATION_TYPE":"U","EPOCH":"2022-01-07T21:30:37.509408"}];
